UNKNOWN                 
1 89183U          26060.98455593  .00000587  00000+0  55384-3 0  9998
2 89183  99.2182 335.2582 0130147 306.2819  52.6369 13.81694760617915
UNKNOWN                 
1 89184U          26060.60284574  .00030259  00000+0  34711-2 0  9996
2 89184  98.3865 294.2575 0007676 240.1970 119.8481 14.85792808503860
UNKNOWN                 
1 89213U          26061.43428425  .00000587  00000+0  40239-3 0  9990
2 89213  98.7729 295.3784 0226595 267.8012  89.7189 13.91696711463751
UNKNOWN                 
1 89251U          26060.99694977  .00019512  00000+0  11030-1 0  9992
2 89251  62.4720 259.6370 2826526 108.0409 284.5849  9.26819186380521
UNKNOWN                 
1 89261U          26051.43209576  .00000802  00000+0  25036-3 0  9994
2 89261  98.1600  47.8830 0011827 311.4506  48.5668 14.43288970543860
UNKNOWN                 
1 89349U          26060.80299344 -.00000084  00000+0 -32098-3 0  9994
2 89349  90.2502   9.1219 0032332  57.9003 302.5248 12.96280968488995
UNKNOWN                 
1 89379U          26061.35151752  .00004719  00000+0  60079-2 0  9994
2 89379 100.4759  87.5753 0041863 283.8077  75.8405 13.63433374591625
UNKNOWN                 
1 89395U          26060.43058072  .00000418  00000+0  51938-2 0  9997
2 89395 102.3831  29.3012 0224813 351.3806 161.4021 12.01546317534194
UNKNOWN                 
1 89403U          26061.31845113  .00001614  00000+0  54150-2 0  9993
2 89403  90.2521   7.6121 0032303  12.6744 140.3973 12.98857227488151
UNKNOWN                 
1 89484U          26061.33793585  .00225901  00000+0  82460-1 0  9990
2 89484  83.9732 131.3858 2869835 280.2419  49.0923  9.27975154362752
UNKNOWN                 
1 89493U          26059.42300704  .00002997  00000+0  14698-2 0  9991
2 89493  99.0180 134.3548 0083318 179.0018 181.1337 14.16758462474945
UNKNOWN                 
1 89494U          26057.43285511  .00002640  00000+0  12985-2 0  9991
2 89494  99.0174 132.2120 0083920 184.7163 175.3229 14.16679072474512
