[{"OBJECT_NAME":"UNKNOWN","OBJECT_ID":"","EPOCH":"2026-03-01T23:37:45.632352","MEAN_MOTION":13.8169476,"ECCENTRICITY":0.0130147,"INCLINATION":99.2182,"RA_OF_ASC_NODE":335.2582,"ARG_OF_PERICENTER":306.2819,"MEAN_ANOMALY":52.6369,"EPHEMERIS_TYPE":0,"CLASSIFICATION_TYPE":"U","NORAD_CAT_ID":89183,"ELEMENT_SET_NO":999,"REV_AT_EPOCH":61791,"BSTAR":0.00055384,"MEAN_MOTION_DOT":5.87e-6,"MEAN_MOTION_DDOT":0},{"OBJECT_NAME":"UNKNOWN","OBJECT_ID":"","EPOCH":"2026-03-01T14:28:05.871936","MEAN_MOTION":14.85792808,"ECCENTRICITY":0.0007676,"INCLINATION":98.3865,"RA_OF_ASC_NODE":294.2575,"ARG_OF_PERICENTER":240.197,"MEAN_ANOMALY":119.8481,"EPHEMERIS_TYPE":0,"CLASSIFICATION_TYPE":"U","NORAD_CAT_ID":89184,"ELEMENT_SET_NO":999,"REV_AT_EPOCH":50386,"BSTAR":0.0034711,"MEAN_MOTION_DOT":0.00030259,"MEAN_MOTION_DDOT":0},{"OBJECT_NAME":"UNKNOWN","OBJECT_ID":"","EPOCH":"2026-03-02T10:25:22.159200","MEAN_MOTION":13.91696711,"ECCENTRICITY":0.0226595,"INCLINATION":98.7729,"RA_OF_ASC_NODE":295.3784,"ARG_OF_PERICENTER":267.8012,"MEAN_ANOMALY":89.7189,"EPHEMERIS_TYPE":0,"CLASSIFICATION_TYPE":"U","NORAD_CAT_ID":89213,"ELEMENT_SET_NO":999,"REV_AT_EPOCH":46375,"BSTAR":0.00040239,"MEAN_MOTION_DOT":5.87e-6,"MEAN_MOTION_DDOT":0},{"OBJECT_NAME":"UNKNOWN","OBJECT_ID":"","EPOCH":"2026-03-01T23:55:36.460128","MEAN_MOTION":9.26819186,"ECCENTRICITY":0.2826526,"INCLINATION":62.472,"RA_OF_ASC_NODE":259.637,"ARG_OF_PERICENTER":108.0409,"MEAN_ANOMALY":284.5849,"EPHEMERIS_TYPE":0,"CLASSIFICATION_TYPE":"U","NORAD_CAT_ID":89251,"ELEMENT_SET_NO":999,"REV_AT_EPOCH":38052,"BSTAR":0.01103,"MEAN_MOTION_DOT":0.00019512,"MEAN_MOTION_DDOT":0},{"OBJECT_NAME":"UNKNOWN","OBJECT_ID":"","EPOCH":"2026-02-20T10:22:13.073664","MEAN_MOTION":14.4328897,"ECCENTRICITY":0.0011827,"INCLINATION":98.16,"RA_OF_ASC_NODE":47.883,"ARG_OF_PERICENTER":311.4506,"MEAN_ANOMALY":48.5668,"EPHEMERIS_TYPE":0,"CLASSIFICATION_TYPE":"U","NORAD_CAT_ID":89261,"ELEMENT_SET_NO":999,"REV_AT_EPOCH":54386,"BSTAR":0.00025036,"MEAN_MOTION_DOT":8.02e-6,"MEAN_MOTION_DDOT":0},{"OBJECT_NAME":"UNKNOWN","OBJECT_ID":"","EPOCH":"2026-03-01T19:16:18.633216","MEAN_MOTION":12.96280968,"ECCENTRICITY":0.0032332,"INCLINATION":90.2502,"RA_OF_ASC_NODE":9.1219,"ARG_OF_PERICENTER":57.9003,"MEAN_ANOMALY":302.5248,"EPHEMERIS_TYPE":0,"CLASSIFICATION_TYPE":"U","NORAD_CAT_ID":89349,"ELEMENT_SET_NO":999,"REV_AT_EPOCH":48899,"BSTAR":-0.00032098,"MEAN_MOTION_DOT":-8.4e-7,"MEAN_MOTION_DDOT":0},{"OBJECT_NAME":"UNKNOWN","OBJECT_ID":"","EPOCH":"2026-03-02T08:26:11.113728","MEAN_MOTION":13.63433374,"ECCENTRICITY":0.0041863,"INCLINATION":100.4759,"RA_OF_ASC_NODE":87.5753,"ARG_OF_PERICENTER":283.8077,"MEAN_ANOMALY":75.8405,"EPHEMERIS_TYPE":0,"CLASSIFICATION_TYPE":"U","NORAD_CAT_ID":89379,"ELEMENT_SET_NO":999,"REV_AT_EPOCH":59162,"BSTAR":0.0060079,"MEAN_MOTION_DOT":4.719e-5,"MEAN_MOTION_DDOT":0},{"OBJECT_NAME":"UNKNOWN","OBJECT_ID":"","EPOCH":"2026-03-01T10:20:02.174208","MEAN_MOTION":12.01546317,"ECCENTRICITY":0.0224813,"INCLINATION":102.3831,"RA_OF_ASC_NODE":29.3012,"ARG_OF_PERICENTER":351.3806,"MEAN_ANOMALY":161.4021,"EPHEMERIS_TYPE":0,"CLASSIFICATION_TYPE":"U","NORAD_CAT_ID":89395,"ELEMENT_SET_NO":999,"REV_AT_EPOCH":53419,"BSTAR":0.0051938,"MEAN_MOTION_DOT":4.18e-6,"MEAN_MOTION_DDOT":0},{"OBJECT_NAME":"UNKNOWN","OBJECT_ID":"","EPOCH":"2026-03-02T07:38:34.177632","MEAN_MOTION":12.98857227,"ECCENTRICITY":0.0032303,"INCLINATION":90.2521,"RA_OF_ASC_NODE":7.6121,"ARG_OF_PERICENTER":12.6744,"MEAN_ANOMALY":140.3973,"EPHEMERIS_TYPE":0,"CLASSIFICATION_TYPE":"U","NORAD_CAT_ID":89403,"ELEMENT_SET_NO":999,"REV_AT_EPOCH":48815,"BSTAR":0.005415,"MEAN_MOTION_DOT":1.614e-5,"MEAN_MOTION_DDOT":0},{"OBJECT_NAME":"UNKNOWN","OBJECT_ID":"","EPOCH":"2026-03-02T08:06:37.657440","MEAN_MOTION":9.27975154,"ECCENTRICITY":0.2869835,"INCLINATION":83.9732,"RA_OF_ASC_NODE":131.3858,"ARG_OF_PERICENTER":280.2419,"MEAN_ANOMALY":49.0923,"EPHEMERIS_TYPE":0,"CLASSIFICATION_TYPE":"U","NORAD_CAT_ID":89484,"ELEMENT_SET_NO":999,"REV_AT_EPOCH":36275,"BSTAR":0.08246,"MEAN_MOTION_DOT":0.00225901,"MEAN_MOTION_DDOT":0},{"OBJECT_NAME":"UNKNOWN","OBJECT_ID":"","EPOCH":"2026-02-28T10:09:07.808256","MEAN_MOTION":14.16758462,"ECCENTRICITY":0.0083318,"INCLINATION":99.018,"RA_OF_ASC_NODE":134.3548,"ARG_OF_PERICENTER":179.0018,"MEAN_ANOMALY":181.1337,"EPHEMERIS_TYPE":0,"CLASSIFICATION_TYPE":"U","NORAD_CAT_ID":89493,"ELEMENT_SET_NO":999,"REV_AT_EPOCH":47494,"BSTAR":0.0014698,"MEAN_MOTION_DOT":2.997e-5,"MEAN_MOTION_DDOT":0},{"OBJECT_NAME":"UNKNOWN","OBJECT_ID":"","EPOCH":"2026-02-26T10:23:18.681504","MEAN_MOTION":14.16679072,"ECCENTRICITY":0.008392,"INCLINATION":99.0174,"RA_OF_ASC_NODE":132.212,"ARG_OF_PERICENTER":184.7163,"MEAN_ANOMALY":175.3229,"EPHEMERIS_TYPE":0,"CLASSIFICATION_TYPE":"U","NORAD_CAT_ID":89494,"ELEMENT_SET_NO":999,"REV_AT_EPOCH":47451,"BSTAR":0.0012985,"MEAN_MOTION_DOT":2.64e-5,"MEAN_MOTION_DDOT":0}]
